STARLINK-35640          
1 66536U 25265W   26196.26954890  .00009541  00000+0  35584-3 0  9999
2 66536  43.0002 277.5579 0001472 279.0583  81.0102 15.27576030 36622
STARLINK-35582          
1 66537U 25265X   26196.26183723  .00011370  00000+0  42206-3 0  9991
2 66537  43.0004 277.4997 0001678 279.4297  80.6365 15.27578878 36620
STARLINK-35577          
1 66538U 25265Y   26196.25797982  .00007055  00000+0  26563-3 0  9992
2 66538  43.0007 277.4700 0001636 276.4160  83.6505 15.27580515 36626
STARLINK-35697          
1 66539U 25265Z   26196.25156093  .00010484  00000+0  39011-3 0  9997
2 66539  43.0012 277.4202 0001776 280.7477  79.3174 15.27567240 36628
STARLINK-35818          
1 66540U 25265AA  26196.29267433  .00004022  00000+0  15561-3 0  9999
2 66540  43.0008 277.7321 0001586 267.0409  93.0261 15.27579650 36620
STARLINK-35796          
1 66541U 25265AB  26196.52980738  .00009559  00000+0  35637-3 0  9992
2 66541  43.0009 276.0724 0001605 274.8337  85.2332 15.27587275 36667
STARLINK-35833          
1 66542U 25265AC  26196.29524505  .00010046  00000+0  37407-3 0  9993
2 66542  43.0006 277.7570 0001701 270.1111  89.9546 15.27580528 36626
STARLINK-35315          
1 66543U 25265AD  26196.27725401  .00003163  00000+0  12443-3 0  9995
2 66543  43.0008 277.6137 0001175 244.8028 115.2702 15.27578450 36625
STARLINK-35728          
1 66544U 25265AE  26196.24384355  .00007345  00000+0  27617-3 0  9997
2 66544  42.9990 277.3593 0002033 277.0172  83.0448 15.27579776 36620
STARLINK-35699          
1 66557U 25268A   26196.44689235  .00016551  00000+0  60948-3 0  9994
2 66557  42.9999 345.9850 0000892 205.2173 154.8635 15.27587848 37496
STARLINK-35695          
1 66558U 25268B   26196.44303712  .00012774  00000+0  47301-3 0  9999
2 66558  43.0008 345.9558 0001730 255.5796 104.4864 15.27574415 37497
STARLINK-35419          
1 66559U 25268C   26195.76732808  .00011807  00000+0  43786-3 0  9995
2 66559  43.0016 349.4852 0002194 290.6199  69.4417 15.27583263 37399
STARLINK-35411          
1 66560U 25268D   26195.76475491  .00010826  00000+0  40225-3 0  9994
2 66560  43.0013 349.4639 0002647 282.1602  77.8953 15.27588279 37399
STARLINK-35305          
1 66561U 25268E   26196.41091637  .00009462  00000+0  35286-3 0  9999
2 66561  43.0065 345.7156 0002448 291.0872  68.9717 15.27585293 37490
STARLINK-35579          
1 66562U 25268F   26196.48015998  .00016038  00000+0  59097-3 0  9996
2 66562  43.0013 345.3696 0001627 260.3171  99.7496 15.27585506 37503
STARLINK-35437          
1 66563U 25268G   26196.47244757  .00010943  00000+0  40661-3 0  9999
2 66563  43.0028 345.3126 0001501 263.7780  96.2901 15.27579862 37503
STARLINK-35358          
1 66564U 25268H   26195.74934067  .00013447  00000+0  49722-3 0  9998
2 66564  43.0039 349.3466 0001754 278.3100  81.7552 15.27583716 37396
STARLINK-35893          
1 66565U 25268J   26196.46473958  .00009817  00000+0  36580-3 0  9990
2 66565  43.0037 345.2545 0001333 265.3017  94.7682 15.27579552 37508
STARLINK-35871          
1 66566U 25268K   26196.46216544  .00015477  00000+0  57061-3 0  9993
2 66566  43.0012 345.2314 0000942 227.8674 132.2098 15.27588192 37502
STARLINK-35825          
1 66567U 25268L   26196.45830962  .00014160  00000+0  52297-3 0  9993
2 66567  43.0017 345.2032 0001426 251.8331 108.2366 15.27588774 37507
STARLINK-35803          
1 66568U 25268M   26196.45317048  .00012738  00000+0  47159-3 0  9999
2 66568  43.0029 345.1646 0001090 264.3401  95.7327 15.27580967 37508
STARLINK-35835          
1 66569U 25268N   26196.51598763  .00015779  00000+0  58149-3 0  9991
2 66569  43.0001 344.7736 0001300 280.8467  79.2238 15.27591626 37516
STARLINK-35834          
1 66570U 25268P   26196.44819145  .00012789  00000+0  47318-3 0  9999
2 66570  43.0038 345.9963 0002135 279.2898  80.7713 15.27597943 37490
STARLINK-35836          
1 66571U 25268Q   26196.44432293  .00009884  00000+0  36814-3 0  9996
2 66571  42.9994 345.9639 0000948 178.4600 181.6255 15.27585965 37494
STARLINK-35870          
1 66572U 25268R   26196.43789967  .00009732  00000+0  36263-3 0  9999
2 66572  43.0005 345.9186 0001071 262.0820  97.9910 15.27585645 37491
STARLINK-35650          
1 66573U 25268S   26196.43404539  .00007471  00000+0  28071-3 0  9995
2 66573  42.9965 345.8871 0000626 260.2647  99.8134 15.27584102 37493
STARLINK-35812          
1 66574U 25268T   26196.43019126  .00008443  00000+0  31589-3 0  9998
2 66574  42.9961 345.8556 0000289 222.5414 137.5415 15.27588292 37494
STARLINK-35810          
1 66575U 25268U   26196.49172307  .00012163  00000+0  45078-3 0  9998
2 66575  42.9993 345.4582 0001311 257.3446 102.7259 15.27580245 37505
STARLINK-35814          
1 66576U 25268V   26196.48786586  .00011624  00000+0  43128-3 0  9993
2 66576  42.9996 345.4264 0001787 257.9039 102.1612 15.27578873 37508
STARLINK-35815          
1 66577U 25268W   26195.76218731  .00012727  00000+0  47114-3 0  9990
2 66577  43.0022 349.4410 0002260 281.0110  79.0487 15.27583966 37391
