OBJECT_NAME,OBJECT_ID,EPOCH,MEAN_MOTION,ECCENTRICITY,INCLINATION,RA_OF_ASC_NODE,ARG_OF_PERICENTER,MEAN_ANOMALY,EPHEMERIS_TYPE,CLASSIFICATION_TYPE,NORAD_CAT_ID,ELEMENT_SET_NO,REV_AT_EPOCH,BSTAR,MEAN_MOTION_DOT,MEAN_MOTION_DDOT
STARLINK-35640,2025-265W,2026-07-15T06:28:09.024960,15.27576030,.00014721,43.0002,277.5579,279.0583,81.0102,0,U,66536,999,3662,.35583816E-3,.9541E-4,0
STARLINK-35582,2025-265X,2026-07-15T06:17:02.736672,15.27578878,.00016782,43.0004,277.4997,279.4297,80.6365,0,U,66537,999,3662,.42205651E-3,.1137E-3,0
STARLINK-35577,2025-265Y,2026-07-15T06:11:29.456448,15.27580515,.00016361,43.0007,277.4700,276.4160,83.6505,0,U,66538,999,3662,.26563002E-3,.7055E-4,0
STARLINK-35697,2025-265Z,2026-07-15T06:02:14.864352,15.27567240,.00017765,43.0012,277.4202,280.7477,79.3174,0,U,66539,999,3662,.39011254E-3,.10484E-3,0
STARLINK-35818,2025-265AA,2026-07-15T07:01:27.062112,15.27579650,.00015866,43.0008,277.7321,267.0409,93.0261,0,U,66540,999,3662,.1556087E-3,.4022E-4,0
STARLINK-35796,2025-265AB,2026-07-15T12:42:55.357632,15.27587275,.00016056,43.0009,276.0724,274.8337,85.2332,0,U,66541,999,3666,.35637452E-3,.9559E-4,0
STARLINK-35833,2025-265AC,2026-07-15T07:05:09.172320,15.27580528,.00017014,43.0006,277.7570,270.1111,89.9546,0,U,66542,999,3662,.37406717E-3,.10046E-3,0
STARLINK-35315,2025-265AD,2026-07-15T06:39:14.746464,15.27578450,.00011757,43.0008,277.6137,244.8028,115.2702,0,U,66543,999,3662,.12443214E-3,.3163E-4,0
STARLINK-35728,2025-265AE,2026-07-15T05:51:08.082720,15.27579776,.00020339,42.9990,277.3593,277.0172,83.0448,0,U,66544,999,3662,.27617161E-3,.7345E-4,0
STARLINK-35699,2025-268A,2026-07-15T10:43:31.499040,15.27587848,.0000892,42.9999,345.9850,205.2173,154.8635,0,U,66557,999,3749,.60947822E-3,.16551E-3,0
STARLINK-35695,2025-268B,2026-07-15T10:37:58.407168,15.27574415,.00017304,43.0008,345.9558,255.5796,104.4864,0,U,66558,999,3749,.47300631E-3,.12774E-3,0
STARLINK-35419,2025-268C,2026-07-14T18:24:57.146112,15.27583263,.00021947,43.0016,349.4852,290.6199,69.4417,0,U,66559,999,3739,.43786068E-3,.11807E-3,0
STARLINK-35411,2025-268D,2026-07-14T18:21:14.824224,15.27588279,.0002647,43.0013,349.4639,282.1602,77.8953,0,U,66560,999,3739,.40225147E-3,.10826E-3,0
STARLINK-35305,2025-268E,2026-07-15T09:51:43.174368,15.27585293,.00024484,43.0065,345.7156,291.0872,68.9717,0,U,66561,999,3749,.35285856E-3,.9462E-4,0
STARLINK-35579,2025-268F,2026-07-15T11:31:25.822272,15.27585506,.00016278,43.0013,345.3696,260.3171,99.7496,0,U,66562,999,3750,.59097494E-3,.16038E-3,0
STARLINK-35437,2025-268G,2026-07-15T11:20:19.470048,15.27579862,.00015017,43.0028,345.3126,263.7780,96.2901,0,U,66563,999,3750,.40661186E-3,.10943E-3,0
STARLINK-35358,2025-268H,2026-07-14T17:59:03.033888,15.27583716,.00017541,43.0039,349.3466,278.3100,81.7552,0,U,66564,999,3739,.49722039E-3,.13447E-3,0
STARLINK-35893,2025-268J,2026-07-15T11:09:13.499712,15.27579552,.00013337,43.0037,345.2545,265.3017,94.7682,0,U,66565,999,3750,.3658031E-3,.9817E-4,0
STARLINK-35871,2025-268K,2026-07-15T11:05:31.094016,15.27588192,.00009424,43.0012,345.2314,227.8674,132.2098,0,U,66566,999,3750,.57060703E-3,.15477E-3,0
STARLINK-35825,2025-268L,2026-07-15T10:59:57.951168,15.27588774,.00014266,43.0017,345.2032,251.8331,108.2366,0,U,66567,999,3750,.52297323E-3,.1416E-3,0
STARLINK-35803,2025-268M,2026-07-15T10:52:33.929472,15.27580967,.000109,43.0029,345.1646,264.3401,95.7327,0,U,66568,999,3750,.4715894E-3,.12738E-3,0
STARLINK-35835,2025-268N,2026-07-15T12:23:01.331232,15.27591626,.00013004,43.0001,344.7736,280.8467,79.2238,0,U,66569,999,3751,.58149153E-3,.15779E-3,0
STARLINK-35834,2025-268P,2026-07-15T10:45:23.741280,15.27597943,.00021351,43.0038,345.9963,279.2898,80.7713,0,U,66570,999,3749,.47318449E-3,.12789E-3,0
STARLINK-35836,2025-268Q,2026-07-15T10:39:49.501152,15.27585965,.00009487,42.9994,345.9639,178.4600,181.6255,0,U,66571,999,3749,.36813636E-3,.9884E-4,0
STARLINK-35870,2025-268R,2026-07-15T10:30:34.531488,15.27585645,.00010711,43.0005,345.9186,262.0820,97.9910,0,U,66572,999,3749,.36263238E-3,.9732E-4,0
STARLINK-35650,2025-268S,2026-07-15T10:25:01.521696,15.27584102,.00006264,42.9965,345.8871,260.2647,99.8134,0,U,66573,999,3749,.28070583E-3,.7471E-4,0
STARLINK-35812,2025-268T,2026-07-15T10:19:28.524864,15.27588292,.00002899,42.9961,345.8556,222.5414,137.5415,0,U,66574,999,3749,.31588896E-3,.8443E-4,0
STARLINK-35810,2025-268U,2026-07-15T11:48:04.873248,15.27580245,.0001311,42.9993,345.4582,257.3446,102.7259,0,U,66575,999,3750,.4507784E-3,.12163E-3,0
STARLINK-35814,2025-268V,2026-07-15T11:42:31.610304,15.27578873,.00017872,42.9996,345.4264,257.9039,102.1612,0,U,66576,999,3750,.43128246E-3,.11624E-3,0
STARLINK-35815,2025-268W,2026-07-14T18:17:32.983584,15.27583966,.00022607,43.0022,349.4410,281.0110,79.0487,0,U,66577,999,3739,.47114469E-3,.12727E-3,0
